start=new Date('2023-04-20T00:00:00.000Z').valueOf();
sats=[{"ELEMENT_SET_NO":"999","MEAN_ANOMALY":"272.7929","SEMIMAJOR_AXIS":"6917.796","CENTER_NAME":"EARTH","GP_ID":"230397425","TLE_LINE1":"1 53796U 22111Z   23109.84195953  .00022079  00000-0  13999-2 0  9999","OBJECT_TYPE":"PAYLOAD","NORAD_CAT_ID":"53796","MEAN_MOTION_DDOT":"0.0000000000000","MEAN_MOTION_DOT":"0.00022079","TLE_LINE2":"2 53796  53.2161 309.1847 0000840  87.3159 272.7929 15.08867733 34752","APOAPSIS":"540.242","LAUNCH_DATE":"2022-09-11","MEAN_MOTION":"15.08867733","SITE":"AFETR","PERIAPSIS":"539.080","EPHEMERIS_TYPE":"0","RCS_SIZE":"LARGE","INCLINATION":"53.2161","DECAY_DATE":null,"CLASSIFICATION_TYPE":"U","OBJECT_ID":"2022-111Z","PERIOD":"95.436","ECCENTRICITY":"0.00008400","TIME_SYSTEM":"UTC","MEAN_ELEMENT_THEORY":"SGP4","REV_AT_EPOCH":"3475","OBJECT_NAME":"STARLINK-4721","BSTAR":"0.00139990000000","RA_OF_ASC_NODE":"309.1847","REF_FRAME":"TEME","COUNTRY_CODE":"US","ARG_OF_PERICENTER":"87.3159","EPOCH":"2023-04-19T20:12:25.303392","FILE":"3890520"},{"BSTAR":"0.00028138000000","OBJECT_NAME":"STARLINK-4723","PERIOD":"95.437","CLASSIFICATION_TYPE":"U","OBJECT_ID":"2022-111AA","DECAY_DATE":null,"INCLINATION":"53.2165","REV_AT_EPOCH":"3431","MEAN_ELEMENT_THEORY":"SGP4","ECCENTRICITY":"0.00010660","TIME_SYSTEM":"UTC","FILE":"3890383","EPOCH":"2023-04-19T00:43:56.284320","RA_OF_ASC_NODE":"332.7226","COUNTRY_CODE":"US","ARG_OF_PERICENTER":"95.8551","REF_FRAME":"TEME","OBJECT_TYPE":"PAYLOAD","TLE_LINE1":"1 53797U 22111AA  23109.03051255  .00004194  00000-0  28138-3 0  9997","GP_ID":"230367965","NORAD_CAT_ID":"53797","SEMIMAJOR_AXIS":"6917.853","MEAN_ANOMALY":"264.2563","ELEMENT_SET_NO":"999","CENTER_NAME":"EARTH","SITE":"AFETR","MEAN_MOTION":"15.08848829","EPHEMERIS_TYPE":"0","RCS_SIZE":"LARGE","PERIAPSIS":"538.981","TLE_LINE2":"2 53797  53.2165 332.7226 0001066  95.8551 264.2563 15.08848829 34318","MEAN_MOTION_DOT":"0.00004194","MEAN_MOTION_DDOT":"0.0000000000000","LAUNCH_DATE":"2022-09-11","APOAPSIS":"540.456"},{"APOAPSIS":"540.344","LAUNCH_DATE":"2022-09-11","MEAN_MOTION_DDOT":"0.0000000000000","TLE_LINE2":"2 53798  53.2164 328.8809 0000962  55.3488 304.7594 15.08862024 34446","MEAN_MOTION_DOT":"0.00017348","RCS_SIZE":"LARGE","EPHEMERIS_TYPE":"0","PERIAPSIS":"539.013","MEAN_MOTION":"15.08862024","SITE":"AFETR","CENTER_NAME":"EARTH","MEAN_ANOMALY":"304.7594","ELEMENT_SET_NO":"999","SEMIMAJOR_AXIS":"6917.813","NORAD_CAT_ID":"53798","OBJECT_TYPE":"PAYLOAD","TLE_LINE1":"1 53798U 22111AB  23109.89531610  .00017348  00000-0  11047-2 0  9995","GP_ID":"230398427","REF_FRAME":"TEME","ARG_OF_PERICENTER":"55.3488","COUNTRY_CODE":"US","RA_OF_ASC_NODE":"328.8809","FILE":"3890520","EPOCH":"2023-04-19T21:29:15.311040","MEAN_ELEMENT_THEORY":"SGP4","TIME_SYSTEM":"UTC","ECCENTRICITY":"0.00009620","REV_AT_EPOCH":"3444","INCLINATION":"53.2164","DECAY_DATE":null,"PERIOD":"95.436","OBJECT_ID":"2022-111AB","CLASSIFICATION_TYPE":"U","OBJECT_NAME":"STARLINK-4712","BSTAR":"0.00110470000000"},{"DECAY_DATE":null,"INCLINATION":"53.2152","OBJECT_ID":"2022-111AC","CLASSIFICATION_TYPE":"U","PERIOD":"95.437","TIME_SYSTEM":"UTC","ECCENTRICITY":"0.00010070","MEAN_ELEMENT_THEORY":"SGP4","REV_AT_EPOCH":"3457","OBJECT_NAME":"STARLINK-4710","BSTAR":"0.00011975000000","RA_OF_ASC_NODE":"319.3616","REF_FRAME":"TEME","ARG_OF_PERICENTER":"92.6655","COUNTRY_CODE":"US","EPOCH":"2023-04-19T20:32:20.957568","FILE":"3890520","ELEMENT_SET_NO":"999","MEAN_ANOMALY":"267.4452","SEMIMAJOR_AXIS":"6917.874","CENTER_NAME":"EARTH","GP_ID":"230397175","TLE_LINE1":"1 53799U 22111AC  23109.85579812  .00001619  00000-0  11975-3 0  9993","OBJECT_TYPE":"PAYLOAD","NORAD_CAT_ID":"53799","MEAN_MOTION_DDOT":"0.0000000000000","TLE_LINE2":"2 53799  53.2152 319.3616 0001007  92.6655 267.4452 15.08842106 34577","MEAN_MOTION_DOT":"0.00001619","APOAPSIS":"540.436","LAUNCH_DATE":"2022-09-11","MEAN_MOTION":"15.08842106","SITE":"AFETR","PERIAPSIS":"539.042","EPHEMERIS_TYPE":"0","RCS_SIZE":"LARGE"},{"NORAD_CAT_ID":"53800","OBJECT_TYPE":"PAYLOAD","GP_ID":"230396925","TLE_LINE1":"1 53800U 22111AD  23109.59451684  .00000338  00000-0  39320-4 0  9995","CENTER_NAME":"EARTH","SEMIMAJOR_AXIS":"6917.874","MEAN_ANOMALY":"274.8635","ELEMENT_SET_NO":"999","RCS_SIZE":"LARGE","EPHEMERIS_TYPE":"0","PERIAPSIS":"539.005","SITE":"AFETR","MEAN_MOTION":"15.08842130","LAUNCH_DATE":"2022-09-11","APOAPSIS":"540.473","MEAN_MOTION_DOT":"0.00000338","TLE_LINE2":"2 53800  53.2174 320.5746 0001061  85.2479 274.8635 15.08842130 34532","MEAN_MOTION_DDOT":"0.0000000000000","BSTAR":"0.00003932000000","OBJECT_NAME":"STARLINK-4720","REV_AT_EPOCH":"3453","MEAN_ELEMENT_THEORY":"SGP4","TIME_SYSTEM":"UTC","ECCENTRICITY":"0.00010610","PERIOD":"95.437","CLASSIFICATION_TYPE":"U","OBJECT_ID":"2022-111AD","INCLINATION":"53.2174","DECAY_DATE":null,"FILE":"3890520","EPOCH":"2023-04-19T14:16:06.254976","COUNTRY_CODE":"US","ARG_OF_PERICENTER":"85.2479","REF_FRAME":"TEME","RA_OF_ASC_NODE":"320.5746"},{"OBJECT_NAME":"STARLINK-4715","BSTAR":"0.00018699000000","INCLINATION":"53.2149","DECAY_DATE":null,"CLASSIFICATION_TYPE":"U","OBJECT_ID":"2022-111AE","PERIOD":"95.438","TIME_SYSTEM":"UTC","ECCENTRICITY":"0.00013220","MEAN_ELEMENT_THEORY":"SGP4","REV_AT_EPOCH":"3457","EPOCH":"2023-04-19T20:21:44.454816","FILE":"3890520","RA_OF_ASC_NODE":"319.3160","REF_FRAME":"TEME","ARG_OF_PERICENTER":"81.8385","COUNTRY_CODE":"US","TLE_LINE1":"1 53801U 22111AE  23109.84843119  .00002689  00000-0  18699-3 0  9998","GP_ID":"230398177","OBJECT_TYPE":"PAYLOAD","NORAD_CAT_ID":"53801","ELEMENT_SET_NO":"999","MEAN_ANOMALY":"278.2757","SEMIMAJOR_AXIS":"6917.886","CENTER_NAME":"EARTH","MEAN_MOTION":"15.08838007","SITE":"AFETR","PERIAPSIS":"538.837","EPHEMERIS_TYPE":"0","RCS_SIZE":"LARGE","MEAN_MOTION_DDOT":"0.0000000000000","TLE_LINE2":"2 53801  53.2149 319.3160 0001322  81.8385 278.2757 15.08838007 34574","MEAN_MOTION_DOT":"0.00002689","APOAPSIS":"540.666","LAUNCH_DATE":"2022-09-11"},{"RCS_SIZE":"LARGE","EPHEMERIS_TYPE":"0","PERIAPSIS":"538.999","MEAN_MOTION":"15.08861860","SITE":"AFETR","APOAPSIS":"540.358","LAUNCH_DATE":"2022-09-11","MEAN_MOTION_DDOT":"0.0000000000000","MEAN_MOTION_DOT":"0.00018697","TLE_LINE2":"2 53802  53.2146 319.3403 0000982  83.5097 276.6007 15.08861860 34575","NORAD_CAT_ID":"53802","OBJECT_TYPE":"PAYLOAD","GP_ID":"230397927","TLE_LINE1":"1 53802U 22111AF  23109.85210831  .00018697  00000-0  11890-2 0  9990","CENTER_NAME":"EARTH","MEAN_ANOMALY":"276.6007","ELEMENT_SET_NO":"999","SEMIMAJOR_AXIS":"6917.814","FILE":"3890520","EPOCH":"2023-04-19T20:27:02.157984","REF_FRAME":"TEME","ARG_OF_PERICENTER":"83.5097","COUNTRY_CODE":"US","RA_OF_ASC_NODE":"319.3403","OBJECT_NAME":"STARLINK-4726","BSTAR":"0.00118900000000","MEAN_ELEMENT_THEORY":"SGP4","TIME_SYSTEM":"UTC","ECCENTRICITY":"0.00009820","REV_AT_EPOCH":"3457","DECAY_DATE":null,"INCLINATION":"53.2146","PERIOD":"95.436","CLASSIFICATION_TYPE":"U","OBJECT_ID":"2022-111AF"},{"FILE":"3890520","EPOCH":"2023-04-19T16:29:21.583968","RA_OF_ASC_NODE":"305.4595","REF_FRAME":"TEME","ARG_OF_PERICENTER":"64.5945","COUNTRY_CODE":"US","OBJECT_NAME":"STARLINK-4727","BSTAR":"0.00097684000000","INCLINATION":"53.2157","DECAY_DATE":null,"PERIOD":"95.437","CLASSIFICATION_TYPE":"U","OBJECT_ID":"2022-111AG","MEAN_ELEMENT_THEORY":"SGP4","ECCENTRICITY":"0.00005930","TIME_SYSTEM":"UTC","REV_AT_EPOCH":"3475","MEAN_MOTION":"15.08847124","SITE":"AFETR","EPHEMERIS_TYPE":"0","RCS_SIZE":"LARGE","PERIAPSIS":"539.313","MEAN_MOTION_DDOT":"0.0000000000000","MEAN_MOTION_DOT":"0.00015296","TLE_LINE2":"2 53803  53.2157 305.4595 0000593  64.5945 295.5109 15.08847124 34755","APOAPSIS":"540.134","LAUNCH_DATE":"2022-09-11","OBJECT_TYPE":"PAYLOAD","GP_ID":"230396675","TLE_LINE1":"1 53803U 22111AG  23109.68705537  .00015296  00000-0  97684-3 0  9992","NORAD_CAT_ID":"53803","MEAN_ANOMALY":"295.5109","ELEMENT_SET_NO":"999","SEMIMAJOR_AXIS":"6917.859","CENTER_NAME":"EARTH"},{"LAUNCH_DATE":"2022-09-11","APOAPSIS":"540.396","MEAN_MOTION_DOT":"0.00000032","TLE_LINE2":"2 53804  53.2170 314.2870 0000972  83.1553 276.9550 15.08847219 34644","MEAN_MOTION_DDOT":"0.0000000000000","EPHEMERIS_TYPE":"0","RCS_SIZE":"LARGE","PERIAPSIS":"539.051","SITE":"AFETR","MEAN_MOTION":"15.08847219","CENTER_NAME":"EARTH","SEMIMAJOR_AXIS":"6917.858","MEAN_ANOMALY":"276.9550","ELEMENT_SET_NO":"999","NORAD_CAT_ID":"53804","OBJECT_TYPE":"PAYLOAD","GP_ID":"230397426","TLE_LINE1":"1 53804U 22111AH  23109.84430925  .00000032  00000-0  20109-4 0  9998","COUNTRY_CODE":"US","ARG_OF_PERICENTER":"83.1553","REF_FRAME":"TEME","RA_OF_ASC_NODE":"314.2870","FILE":"3890520","EPOCH":"2023-04-19T20:15:48.319200","REV_AT_EPOCH":"3464","MEAN_ELEMENT_THEORY":"SGP4","ECCENTRICITY":"0.00009720","TIME_SYSTEM":"UTC","PERIOD":"95.437","CLASSIFICATION_TYPE":"U","OBJECT_ID":"2022-111AH","DECAY_DATE":null,"INCLINATION":"53.2170","BSTAR":"0.00002010900000","OBJECT_NAME":"STARLINK-4729"},{"ELEMENT_SET_NO":"999","MEAN_ANOMALY":"269.0521","SEMIMAJOR_AXIS":"6917.851","CENTER_NAME":"EARTH","GP_ID":"230397677","TLE_LINE1":"1 53805U 22111AJ  23109.80383783  .00021355  00000-0  13554-2 0  9999","OBJECT_TYPE":"PAYLOAD","NORAD_CAT_ID":"53805","MEAN_MOTION_DDOT":"0.0000000000000","MEAN_MOTION_DOT":"0.00021355","TLE_LINE2":"2 53805  53.2153 304.7668 0000930  91.0578 269.0521 15.08849484 34775","APOAPSIS":"540.360","LAUNCH_DATE":"2022-09-11","MEAN_MOTION":"15.08849484","SITE":"AFETR","PERIAPSIS":"539.073","RCS_SIZE":"LARGE","EPHEMERIS_TYPE":"0","INCLINATION":"53.2153","DECAY_DATE":null,"OBJECT_ID":"2022-111AJ","CLASSIFICATION_TYPE":"U","PERIOD":"95.437","ECCENTRICITY":"0.00009300","TIME_SYSTEM":"UTC","MEAN_ELEMENT_THEORY":"SGP4","REV_AT_EPOCH":"3477","OBJECT_NAME":"STARLINK-4763","BSTAR":"0.00135540000000","RA_OF_ASC_NODE":"304.7668","REF_FRAME":"TEME","COUNTRY_CODE":"US","ARG_OF_PERICENTER":"91.0578","EPOCH":"2023-04-19T19:17:31.588512","FILE":"3890520"}];
